{"type": "FeatureCollection", "features": [ {"type": "Feature", "properties": {"norad_id": 41836, "name": "HIMAWARI-9", "group": "weather", "lat": -0.007984847578964832, "lon": 24.51921734286478, "alt_km": 35788.237439881304, "timestamp": "2025-12-11T10:53:15.526203+00:00", "meta": {"OBJECT_NAME": "HIMAWARI-9", "OBJECT_ID": "2016-064A", "EPOCH": "2025-12-10T22:46:23.028096", "MEAN_MOTION": 1.00273348, "ECCENTRICITY": 0.0001251, "INCLINATION": 0.0294, "RA_OF_ASC_NODE": 85.1357, "ARG_OF_PERICENTER": 180.7983, "MEAN_ANOMALY": 296.3576, "EPHEMERIS_TYPE": 0, "CLASSIFICATION_TYPE": "U", "NORAD_CAT_ID": 41836, "ELEMENT_SET_NO": 999, "REV_AT_EPOCH": 3332, "BSTAR": 0, "MEAN_MOTION_DOT": -2.69e-06, "MEAN_MOTION_DDOT": 0}, "tle": {"line1": "1 41836U 16064A   25344.94887764 -.00000269  00000+0  00000+0 0  9996", "line2": "2 41836   0.0294  85.1357 0001251 180.7983 296.3576  1.00273348 33320"}}, "geometry": {"type": "Point", "coordinates": [24.51921734286478, -0.007984847578964832]}}, {"type": "Feature", "properties": {"norad_id": 41866, "name": "GOES 16", "group": "weather", "lat": 0.04517979073796056, "lon": 139.01921410599508, "alt_km": 35793.81575605581, "timestamp": "2025-12-11T10:53:15.526216+00:00", "meta": {"OBJECT_NAME": "GOES 16", "OBJECT_ID": "2016-071A", "EPOCH": "2025-12-11T05:00:38.584224", "MEAN_MOTION": 1.00271355, "ECCENTRICITY": 0.000331, "INCLINATION": 0.0662, "RA_OF_ASC_NODE": 103.7477, "ARG_OF_PERICENTER": 158.2336, "MEAN_ANOMALY": 148.679, "EPHEMERIS_TYPE": 0, "CLASSIFICATION_TYPE": "U", "NORAD_CAT_ID": 41866, "ELEMENT_SET_NO": 999, "REV_AT_EPOCH": 3321, "BSTAR": 0, "MEAN_MOTION_DOT": -8.5e-07, "MEAN_MOTION_DDOT": 0}, "tle": {"line1": "1 41866U 16071A   25345.20877991 -.00000085  00000+0  00000+0 0  9994", "line2": "2 41866   0.0662 103.7477 0003310 158.2336 148.6790  1.00271355 33213"}}, "geometry": {"type": "Point", "coordinates": [139.01921410599508, 0.04517979073796056]}}, {"type": "Feature", "properties": {"norad_id": 41882, "name": "FENGYUN 4A", "group": "weather", "lat": -1.7733882631730447, "lon": 7.60759388047119, "alt_km": 35802.616001368384, "timestamp": "2025-12-11T10:53:15.526228+00:00", "meta": {"OBJECT_NAME": "FENGYUN 4A", "OBJECT_ID": "2016-077A", "EPOCH": "2025-12-10T22:41:30.995232", "MEAN_MOTION": 1.00270325, "ECCENTRICITY": 0.0004947, "INCLINATION": 1.8448, "RA_OF_ASC_NODE": 82.3997, "ARG_OF_PERICENTER": 145.8044, "MEAN_ANOMALY": 315.9271, "EPHEMERIS_TYPE": 0, "CLASSIFICATION_TYPE": "U", "NORAD_CAT_ID": 41882, "ELEMENT_SET_NO": 999, "REV_AT_EPOCH": 3304, "BSTAR": 0, "MEAN_MOTION_DOT": -3.51e-06, "MEAN_MOTION_DDOT": 0}, "tle": {"line1": "1 41882U 16077A   25344.94549763 -.00000351  00000+0  00000+0 0  9997", "line2": "2 41882   1.8448  82.3997 0004947 145.8044 315.9271  1.00270325 33046"}}, "geometry": {"type": "Point", "coordinates": [7.60759388047119, -1.7733882631730447]}}, {"type": "Feature", "properties": {"norad_id": 41884, "name": "CYGFM05", "group": "weather", "lat": 13.908941949848698, "lon": 76.29143299794767, "alt_km": 426.3642012358496, "timestamp": "2025-12-11T10:53:15.526240+00:00", "meta": {"OBJECT_NAME": "CYGFM05", "OBJECT_ID": "2016-078A", "EPOCH": "2025-12-10T14:39:13.190112", "MEAN_MOTION": 15.47511355, "ECCENTRICITY": 0.0009831, "INCLINATION": 34.9599, "RA_OF_ASC_NODE": 61.038, "ARG_OF_PERICENTER": 163.8231, "MEAN_ANOMALY": 196.2806, "EPHEMERIS_TYPE": 0, "CLASSIFICATION_TYPE": "U", "NORAD_CAT_ID": 41884, "ELEMENT_SET_NO": 999, "REV_AT_EPOCH": 49943, "BSTAR": 0.00053014, "MEAN_MOTION_DOT": 0.00028182, "MEAN_MOTION_DDOT": 0}, "tle": {"line1": "1 41884U 16078A   25344.61056933  .00028182  00000+0  53014-3 0  9994", "line2": "2 41884  34.9599  61.0380 0009831 163.8231 196.2806 15.47511355499437"}}, "geometry": {"type": "Point", "coordinates": [76.29143299794767, 13.908941949848698]}}, {"type": "Feature", "properties": {"norad_id": 41885, "name": "CYGFM04", "group": "weather", "lat": -32.930886974989605, "lon": -81.54585866498618, "alt_km": 414.0979131594713, "timestamp": "2025-12-11T10:53:15.526251+00:00", "meta": {"OBJECT_NAME": "CYGFM04", "OBJECT_ID": "2016-078B", "EPOCH": "2025-12-11T05:10:15.261024", "MEAN_MOTION": 15.50253056, "ECCENTRICITY": 0.0009303, "INCLINATION": 34.9353, "RA_OF_ASC_NODE": 31.908, "ARG_OF_PERICENTER": 196.8929, "MEAN_ANOMALY": 163.1484, "EPHEMERIS_TYPE": 0, "CLASSIFICATION_TYPE": "U", "NORAD_CAT_ID": 41885, "ELEMENT_SET_NO": 999, "REV_AT_EPOCH": 49970, "BSTAR": 0.00052473, "MEAN_MOTION_DOT": 0.00030733, "MEAN_MOTION_DDOT": 0}, "tle": {"line1": "1 41885U 16078B   25345.21545441  .00030733  00000+0  52473-3 0  9992", "line2": "2 41885  34.9353  31.9080 0009303 196.8929 163.1484 15.50253056499703"}}, "geometry": {"type": "Point", "coordinates": [-81.54585866498618, -32.930886974989605]}}, {"type": "Feature", "properties": {"norad_id": 41886, "name": "CYGFM02", "group": "weather", "lat": -34.11427528400468, "lon": -75.34774000148136, "alt_km": 410.21625556273375, "timestamp": "2025-12-11T10:53:15.526262+00:00", "meta": {"OBJECT_NAME": "CYGFM02", "OBJECT_ID": "2016-078C", "EPOCH": "2025-12-11T05:08:50.924256", "MEAN_MOTION": 15.51625052, "ECCENTRICITY": 0.0010962, "INCLINATION": 34.9444, "RA_OF_ASC_NODE": 30.2604, "ARG_OF_PERICENTER": 196.6224, "MEAN_ANOMALY": 163.4141, "EPHEMERIS_TYPE": 0, "CLASSIFICATION_TYPE": "U", "NORAD_CAT_ID": 41886, "ELEMENT_SET_NO": 999, "REV_AT_EPOCH": 49983, "BSTAR": 0.00053842, "MEAN_MOTION_DOT": 0.00033157, "MEAN_MOTION_DDOT": 0}, "tle": {"line1": "1 41886U 16078C   25345.21447829  .00033157  00000+0  53842-3 0  9998", "line2": "2 41886  34.9444  30.2604 0010962 196.6224 163.4141 15.51625052499835"}}, "geometry": {"type": "Point", "coordinates": [-75.34774000148136, -34.11427528400468]}}, {"type": "Feature", "properties": {"norad_id": 41887, "name": "CYGFM01", "group": "weather", "lat": 31.62084632773268, "lon": 119.75118769389252, "alt_km": 417.0848587278779, "timestamp": "2025-12-11T10:53:15.526273+00:00", "meta": {"OBJECT_NAME": "CYGFM01", "OBJECT_ID": "2016-078D", "EPOCH": "2025-12-10T22:13:16.222080", "MEAN_MOTION": 15.48103632, "ECCENTRICITY": 0.0009424, "INCLINATION": 34.9432, "RA_OF_ASC_NODE": 61.3408, "ARG_OF_PERICENTER": 158.7693, "MEAN_ANOMALY": 201.3421, "EPHEMERIS_TYPE": 0, "CLASSIFICATION_TYPE": "U", "NORAD_CAT_ID": 41887, "ELEMENT_SET_NO": 999, "REV_AT_EPOCH": 49942, "BSTAR": 0.00053215, "MEAN_MOTION_DOT": 0.00028881, "MEAN_MOTION_DDOT": 0}, "tle": {"line1": "1 41887U 16078D   25344.92588220  .00028881  00000+0  53215-3 0  9999", "line2": "2 41887  34.9432  61.3408 0009424 158.7693 201.3421 15.48103632499429"}}, "geometry": {"type": "Point", "coordinates": [119.75118769389252, 31.62084632773268]}}, {"type": "Feature", "properties": {"norad_id": 41888, "name": "CYGFM08", "group": "weather", "lat": 32.73931763842509, "lon": 153.86365222083316, "alt_km": 411.0035869711901, "timestamp": "2025-12-11T10:53:15.526284+00:00", "meta": {"OBJECT_NAME": "CYGFM08", "OBJECT_ID": "2016-078E", "EPOCH": "2025-12-11T04:13:57.874656", "MEAN_MOTION": 15.49317028, "ECCENTRICITY": 0.0011383, "INCLINATION": 34.9462, "RA_OF_ASC_NODE": 42.7135, "ARG_OF_PERICENTER": 184.8432, "MEAN_ANOMALY": 175.2181, "EPHEMERIS_TYPE": 0, "CLASSIFICATION_TYPE": "U", "NORAD_CAT_ID": 41888, "ELEMENT_SET_NO": 999, "REV_AT_EPOCH": 49969, "BSTAR": 0.00051808, "MEAN_MOTION_DOT": 0.0002937, "MEAN_MOTION_DDOT": 0}, "tle": {"line1": "1 41888U 16078E   25345.17636429  .00029370  00000+0  51808-3 0  9993", "line2": "2 41888  34.9462  42.7135 0011383 184.8432 175.2181 15.49317028499699"}}, "geometry": {"type": "Point", "coordinates": [153.86365222083316, 32.73931763842509]}}, {"type": "Feature", "properties": {"norad_id": 41890, "name": "CYGFM07", "group": "weather", "lat": 34.822583721702784, "lon": 124.9821633437834, "alt_km": 412.8926692845989, "timestamp": "2025-12-11T10:53:15.526295+00:00", "meta": {"OBJECT_NAME": "CYGFM07", "OBJECT_ID": "2016-078G", "EPOCH": "2025-12-11T04:17:57.980256", "MEAN_MOTION": 15.49896476, "ECCENTRICITY": 0.0009773, "INCLINATION": 34.9483, "RA_OF_ASC_NODE": 31.6847, "ARG_OF_PERICENTER": 202.3407, "MEAN_ANOMALY": 157.689, "EPHEMERIS_TYPE": 0, "CLASSIFICATION_TYPE": "U", "NORAD_CAT_ID": 41890, "ELEMENT_SET_NO": 999, "REV_AT_EPOCH": 49971, "BSTAR": 0.00052095, "MEAN_MOTION_DOT": 0.00030129, "MEAN_MOTION_DDOT": 0}, "tle": {"line1": "1 41890U 16078G   25345.17914329  .00030129  00000+0  52095-3 0  9997", "line2": "2 41890  34.9483  31.6847 0009773 202.3407 157.6890 15.49896476499713"}}, "geometry": {"type": "Point", "coordinates": [124.9821633437834, 34.822583721702784]}}, {"type": "Feature", "properties": {"norad_id": 41891, "name": "CYGFM03", "group": "weather", "lat": -32.64995653184742, "lon": -34.785058545623684, "alt_km": 420.0395792807449, "timestamp": "2025-12-11T10:53:15.526306+00:00", "meta": {"OBJECT_NAME": "CYGFM03", "OBJECT_ID": "2016-078H", "EPOCH": "2025-12-11T05:00:24.833664", "MEAN_MOTION": 15.49798407, "ECCENTRICITY": 0.0009092, "INCLINATION": 34.9435, "RA_OF_ASC_NODE": 33.4093, "ARG_OF_PERICENTER": 189.8697, "MEAN_ANOMALY": 170.1848, "EPHEMERIS_TYPE": 0, "CLASSIFICATION_TYPE": "U", "NORAD_CAT_ID": 41891, "ELEMENT_SET_NO": 999, "REV_AT_EPOCH": 49969, "BSTAR": 0.00051515, "MEAN_MOTION_DOT": 0.0002968, "MEAN_MOTION_DDOT": 0}, "tle": {"line1": "1 41891U 16078H   25345.20862076  .00029680  00000+0  51515-3 0  9999", "line2": "2 41891  34.9435  33.4093 0009092 189.8697 170.1848 15.49798407499693"}}, "geometry": {"type": "Point", "coordinates": [-34.785058545623684, -32.64995653184742]}}]}